NORAD_CAT_ID,OBJECT_NAME,OBJECT_TYPE,EPOCH,MEAN_MOTION,ECCENTRICITY,INCLINATION,RA_OF_ASC_NODE,ARG_OF_PERICENTER,MEAN_ANOMALY,BSTAR,MEAN_MOTION_DOT,MEAN_MOTION_DDOT,TLE_LINE0,TLE_LINE1,TLE_LINE2,SEMIMAJOR_AXIS,PERIOD,APOGEE,PERIGEE,DECAYED
55779.0,STARLINK-5817,PAYLOAD,2023-04-02 16:05:46,15.69926036,0.0002973,70.0015,70.9083,264.4593,95.6264,2.3273e-05,2.587e-05,0.0,0 STARLINK-5817,1 55779U 23028AQ  23092.67067961  .00002587  00000-0  23273-4 0  9999,2 55779  70.0015  70.9083 0002973 264.4593  95.6264 15.69926036  5373,6737.246,91.724,361.114,357.108,0.0
55779.0,STARLINK-5817,PAYLOAD,2023-04-03 01:16:17,15.69911785,0.000331,70.002,69.835,264.0414,96.0404,-1.9865e-05,-2.599e-05,0.0,0 STARLINK-5817,1 55779U 23028AQ  23093.05298529 -.00002599  00000-0 -19865-4 0  9995,2 55779  70.0020  69.8350 0003310 264.0414  96.0404 15.69911785  5430,6737.286,91.725,361.381,356.921,0.0
55779.0,STARLINK-5817,PAYLOAD,2023-04-03 08:55:03,15.69926507,0.0002547,70.0018,68.9374,259.2247,100.8662,2.911e-05,3.289e-05,0.0,0 STARLINK-5817,1 55779U 23028AQ  23093.37156704  .00003289  00000-0  29110-4 0  9997,2 55779  70.0018  68.9374 0002547 259.2247 100.8662 15.69926507  5487,6737.244,91.724,360.825,357.393,0.0
55779.0,STARLINK-5817,PAYLOAD,2023-04-04 07:51:20,15.69931007,0.0003163,70.0022,66.2521,263.4185,96.6651,5.0508e-05,5.866e-05,0.0,0 STARLINK-5817,1 55779U 23028AQ  23094.32731541  .00005866  00000-0  50508-4 0  9999,2 55779  70.0022  66.2521 0003163 263.4185  96.6651 15.69931007  5638,6737.231,91.724,361.227,356.965,0.0
55779.0,STARLINK-5817,PAYLOAD,2023-04-05 00:40:36,15.6992705,0.0003126,70.0015,64.2787,253.6229,106.4623,2.1914e-05,2.423e-05,0.0,0 STARLINK-5817,1 55779U 23028AQ  23095.02819963  .00002423  00000-0  21914-4 0  9997,2 55779  70.0015  64.2787 0003126 253.6229 106.4623 15.69927050  5745,6737.243,91.724,361.214,357.002,0.0
55779.0,STARLINK-5817,PAYLOAD,2023-04-05 08:19:21,15.69934845,0.0003027,70.002,63.3873,254.6338,105.4524,7.083e-05,8.316e-05,0.0,0 STARLINK-5817,1 55779U 23028AQ  23095.34678167  .00008316  00000-0  70830-4 0  9999,2 55779  70.0020  63.3873 0003027 254.6338 105.4524 15.69934845  5793,6737.22,91.724,361.125,357.046,0.0
55779.0,STARLINK-5817,PAYLOAD,2023-04-06 01:08:38,15.69922218,0.0003582,70.0011,61.4138,255.3222,104.7577,2.1335e-05,2.353e-05,0.0,0 STARLINK-5817,1 55779U 23028AQ  23096.04766767  .00002353  00000-0  21335-4 0  9992,2 55779  70.0011  61.4138 0003582 255.3222 104.7577 15.69922218  5906,6737.257,91.724,361.535,356.708,0.0
55779.0,STARLINK-5817,PAYLOAD,2023-04-06 07:15:38,15.6992575,0.0003299,70.0018,60.699,247.6359,112.4488,2.6426e-05,2.966e-05,0.0,0 STARLINK-5817,1 55779U 23028AQ  23096.30253418  .00002966  00000-0  26426-4 0  9991,2 55779  70.0018  60.6990 0003299 247.6359 112.4488 15.69925750  5945,6737.246,91.724,361.334,356.889,0.0
55779.0,STARLINK-5817,PAYLOAD,2023-04-07 06:11:55,15.69933079,0.0003254,70.0025,58.0123,245.7701,114.3155,3.8198e-05,4.384e-05,0.0,0 STARLINK-5817,1 55779U 23028AQ  23097.25828255  .00004384  00000-0  38198-4 0  9998,2 55779  70.0025  58.0123 0003254 245.7701 114.3155 15.69933079  6095,6737.225,91.724,361.283,356.898,0.0
55779.0,STARLINK-5817,PAYLOAD,2023-04-08 00:32:57,15.69924209,0.0003354,70.0028,55.8605,225.8053,134.2868,5.195e-06,4.12e-06,0.0,0 STARLINK-5817,1 55779U 23028AQ  23098.02288612  .00000412  00000-0  51950-5 0  9991,2 55779  70.0028  55.8605 0003354 225.8053 134.2868 15.69924209  6219,6737.251,91.724,361.376,356.856,0.0
55779.0,STARLINK-5817,PAYLOAD,2023-04-08 06:39:58,15.69920092,0.0002937,70.0038,55.1463,236.3712,123.7203,2.4069e-06,7.7e-07,0.0,0 STARLINK-5817,1 55779U 23028AQ  23098.27775659  .00000077  00000-0  24069-5 0  9998,2 55779  70.0038  55.1463 0002937 236.3712 123.7203 15.69920092  6256,6737.263,91.724,361.106,357.149,0.0
55779.0,STARLINK-5817,PAYLOAD,2023-04-09 07:07:59,15.69929308,0.000397,70.0026,52.2791,265.7379,94.3363,8.1938e-06,7.73e-06,0.0,0 STARLINK-5817,1 55779U 23028AQ  23099.29721614  .00000773  00000-0  81938-5 0  9994,2 55779  70.0026  52.2791 0003970 265.7379  94.3363 15.69929308  6415,6737.236,91.724,361.776,356.427,0.0
55779.0,STARLINK-5817,PAYLOAD,2023-04-10 03:00:46,15.69926992,0.0003604,70.0013,49.9483,260.7673,99.3115,2.5008e-05,2.796e-05,0.0,0 STARLINK-5817,1 55779U 23028AQ  23100.12553726  .00002796  00000-0  25008-4 0  9998,2 55779  70.0013  49.9483 0003604 260.7673  99.3115 15.69926992  6548,6737.243,91.724,361.536,356.68,0.0
55779.0,STARLINK-5817,PAYLOAD,2023-04-10 06:04:16,15.69932215,0.0003586,70.0009,49.591,267.4349,92.6436,1.8588e-05,2.024e-05,0.0,0 STARLINK-5817,1 55779U 23028AQ  23100.25296819  .00002024  00000-0  18588-4 0  9998,2 55779  70.0009  49.5910 0003586 267.4349  92.6436 15.69932215  6566,6737.228,91.724,361.509,356.677,0.0
55779.0,STARLINK-5817,PAYLOAD,2023-04-11 00:25:18,15.69909305,0.0003178,70.0022,47.4416,257.3026,102.7815,-4.2382e-05,-5.302e-05,0.0,0 STARLINK-5817,1 55779U 23028AQ  23101.01757134 -.00005302  00000-0 -42382-4 0  9998,2 55779  70.0022  47.4416 0003178 257.3026 102.7815 15.69909305  6687,6737.293,91.725,361.3,357.017,0.0
55779.0,STARLINK-5817,PAYLOAD,2023-04-11 08:04:04,15.69916366,0.0003457,70.0026,46.5471,266.5833,93.4967,-1.225e-05,-1.685e-05,0.0,0 STARLINK-5817,1 55779U 23028AQ  23101.33615789 -.00001685  00000-0 -12250-4 0  9993,2 55779  70.0026  46.5471 0003457 266.5833  93.4967 15.69916366  6735,6737.273,91.725,361.467,356.809,0.0
55779.0,STARLINK-5817,PAYLOAD,2023-04-11 21:49:49,15.6992803,0.0003765,70.0015,44.9337,271.0731,89.0033,1.348e-05,1.409e-05,0.0,0 STARLINK-5817,1 55779U 23028AQ  23101.90960373  .00001409  00000-0  13480-4 0  9996,2 55779  70.0015  44.9337 0003765 271.0731  89.0033 15.69928030  6822,6737.24,91.724,361.641,356.568,0.0
55779.0,STARLINK-5817,PAYLOAD,2023-04-12 03:56:49,15.69939549,0.0003649,70.002,44.2179,268.5781,91.4996,6.7758e-05,7.948e-05,0.0,0 STARLINK-5817,1 55779U 23028AQ  23102.16446650  .00007948  00000-0  67758-4 0  9993,2 55779  70.0020  44.2179 0003649 268.5781  91.4996 15.69939549  6868,6737.207,91.723,361.53,356.614,0.0
55779.0,STARLINK-5817,PAYLOAD,2023-04-12 13:07:21,15.69917409,0.0003254,70.0009,43.1428,269.5693,90.5129,3.9595e-06,2.63e-06,0.0,0 STARLINK-5817,1 55779U 23028AQ  23102.54677629  .00000263  00000-0  39595-5 0  9999,2 55779  70.0009  43.1428 0003254 269.5693  90.5129 15.69917409  6921,6737.27,91.725,361.328,356.943,0.0
55779.0,STARLINK-5817,PAYLOAD,2023-04-13 05:56:37,15.6991473,0.0002985,70.0033,41.1735,271.5206,88.5647,-2.665e-05,-3.414e-05,0.0,0 STARLINK-5817,1 55779U 23028AQ  23103.24766186 -.00003414  00000-0 -26650-4 0  9994,2 55779  70.0033  41.1735 0002985 271.5206  88.5647 15.69914730  7039,6737.278,91.725,361.154,357.132,0.0
55779.0,STARLINK-5817,PAYLOAD,2023-04-14 04:52:54,15.69932651,0.0003329,70.0014,38.4846,262.9567,97.125,5.8797e-05,6.865e-05,0.0,0 STARLINK-5817,1 55779U 23028AQ  23104.20340725  .00006865  00000-0  58797-4 0  9996,2 55779  70.0014  38.4846 0003329 262.9567  97.1250 15.69932651  7181,6737.227,91.724,361.335,356.849,0.0
55779.0,STARLINK-5817,PAYLOAD,2023-04-15 05:20:56,15.69940515,0.0003688,70.0016,35.6192,266.9685,93.1089,5.3648e-05,6.247e-05,0.0,0 STARLINK-5817,1 55779U 23028AQ  23105.22287122  .00006247  00000-0  53648-4 0  9994,2 55779  70.0016  35.6192 0003688 266.9685  93.1089 15.69940515  7341,6737.204,91.723,361.554,356.585,0.0
55779.0,STARLINK-5817,PAYLOAD,2023-04-15 20:38:27,15.6992622,0.0002972,70.0028,33.8319,239.9484,120.1417,1.4707e-05,1.556e-05,0.0,0 STARLINK-5817,1 55779U 23028AQ  23105.86004369  .00001556  00000-0  14707-4 0  9995,2 55779  70.0028  33.8319 0002972 239.9484 120.1417 15.69926220  7441,6737.245,91.724,361.112,357.108,0.0
55779.0,STARLINK-5817,PAYLOAD,2023-04-16 04:17:12,15.69941087,0.0003765,70.0014,32.9313,265.599,94.4776,7.846e-05,9.239e-05,0.0,0 STARLINK-5817,1 55779U 23028AQ  23106.17862211  .00009239  00000-0  78460-4 0  9990,2 55779  70.0014  32.9313 0003765 265.5990  94.4776 15.69941087  7492,6737.203,91.723,361.604,356.531,0.0
55779.0,STARLINK-5817,PAYLOAD,2023-04-16 19:34:44,15.69924691,0.0003315,70.0018,31.1406,269.8631,90.2184,1.5092e-05,1.602e-05,0.0,0 STARLINK-5817,1 55779U 23028AQ  23106.81579482  .00001602  00000-0  15092-4 0  9994,2 55779  70.0018  31.1406 0003315 269.8631  90.2184 15.69924691  7590,6737.249,91.724,361.348,356.881,0.0
55779.0,STARLINK-5817,PAYLOAD,2023-04-16 21:06:30,15.6991155,0.0004278,70.0028,30.9634,282.4832,77.5885,-9.9025e-06,-1.403e-05,0.0,0 STARLINK-5817,1 55779U 23028AQ  23106.87951710 -.00001403  00000-0 -99025-5 0  9998,2 55779  70.0028  30.9634 0004278 282.4832  77.5885 15.69911550  7602,6737.287,91.725,362.034,356.27,0.0
55779.0,STARLINK-5817,PAYLOAD,2023-04-17 04:45:15,15.69920849,0.0003061,70.004,30.0691,246.3868,113.7006,7.9081e-06,7.38e-06,0.0,0 STARLINK-5817,1 55779U 23028AQ  23107.19809781  .00000738  00000-0  79081-5 0  9992,2 55779  70.0040  30.0691 0003061 246.3868 113.7006 15.69920849  7651,6737.26,91.724,361.188,357.063,0.0
55779.0,STARLINK-5817,PAYLOAD,2023-04-17 20:02:46,15.69933101,0.0003278,70.0039,28.2755,254.1946,105.8888,4.1787e-05,4.817e-05,0.0,0 STARLINK-5817,1 55779U 23028AQ  23107.83526247  .00004817  00000-0  41787-4 0  9999,2 55779  70.0039  28.2755 0003278 254.1946 105.8888 15.69933101  7759,6737.225,91.724,361.299,356.882,0.0
55779.0,STARLINK-5817,PAYLOAD,2023-04-17 21:34:31,15.69934976,0.0003258,70.0032,28.0969,251.6006,108.4836,4.8141e-05,5.582e-05,0.0,0 STARLINK-5817,1 55779U 23028AQ  23107.89897770  .00005582  00000-0  48141-4 0  9998,2 55779  70.0032  28.0969 0003258 251.6006 108.4836 15.69934976  7768,6737.22,91.724,361.28,356.89,0.0
55779.0,STARLINK-5817,PAYLOAD,2023-04-18 05:13:17,15.69935582,0.0003244,70.0039,27.2025,257.835,102.2482,5.015e-05,5.824e-05,0.0,0 STARLINK-5817,1 55779U 23028AQ  23108.21756168  .00005824  00000-0  50150-4 0  9992,2 55779  70.0039  27.2025 0003244 257.8350 102.2482 15.69935582  7813,6737.218,91.724,361.269,356.898,0.0
